API VERSION: 1.2
API SOURCE: NASA/JPL Horizons API



*******************************************************************************
Ephemeris / API_USER Fri Apr  3 11:29:18 2026 Pasadena, USA      / Horizons
*******************************************************************************
Target body name: Saturn (699)                    {source: sat441l}
Center body name: Earth (399)                     {source: DE441}
Center-site name: BODY CENTER
*******************************************************************************
Start time      : A.D. 2026-Mar-28 20:46:59.9998 TDB
Stop  time      : A.D. 2026-Mar-30 20:46:59.9998 TDB
Step-size       : 60 minutes
*******************************************************************************
Center geodetic : 0.0, 0.0, 0.0                   {E-lon(deg),Lat(deg),Alt(km)}
Center cylindric: 0.0, 0.0, 0.0                   {E-lon(deg),Dxy(km),Dz(km)}
Center radii    : 6378.137, 6378.137, 6356.752 km {Equator_a, b, pole_c}
Output units    : AU-D
Calendar mode   : Mixed Julian/Gregorian
Output type     : GEOMETRIC cartesian states
Output format   : 3 (position, velocity, LT, range, range-rate)
EOP file        : eop.260402.p260629
EOP coverage    : DATA-BASED 1962-JAN-20 TO 2026-APR-02. PREDICTS-> 2026-JUN-28
Reference frame : ICRF
*******************************************************************************
            JDTDB,            Calendar Date (TDB),                      X,                      Y,                      Z,                     VX,                     VY,                     VZ,                     LT,                     RG,                     RR,
**************************************************************************************************************************************************************************************************************************************************************************
$$SOE
2461129.615972220, A.D. 2026-Mar-30 02:46:59.9998,  1.043998084238004E+01,  9.848141192090397E-01,  2.599785539890139E-03, -3.181347703591030E-03,  2.076016416372864E-02,  8.925702488325717E-03,  6.056397702522474E-02,  1.048632755532367E+01, -1.215401799476469E-03,
2461129.657638886, A.D. 2026-Mar-30 03:46:59.9998,  1.043984803009420E+01,  9.856790880067784E-01,  2.971673433174207E-03, -3.193641688492536E-03,  2.075833689936566E-02,  8.924915859055535E-03,  6.056368329777024E-02,  1.048627669799145E+01, -1.225749972251029E-03,
2461129.699305553, A.D. 2026-Mar-30 04:46:59.9998,  1.043971470559976E+01,  9.865439805150599E-01,  3.343528483980460E-03, -3.205933722593057E-03,  2.075650227205382E-02,  8.924126049975578E-03,  6.056338708018776E-02,  1.048622540950694E+01, -1.236097115983872E-03,
2461129.740972220, A.D. 2026-Mar-30 05:46:59.9998,  1.043958086897721E+01,  9.874087964273335E-01,  3.715350559894259E-03, -3.218223844097813E-03,  2.075466029217545E-02,  8.923333064904242E-03,  6.056308837272023E-02,  1.048617368991220E+01, -1.246443270117655E-03,
2461129.782638886, A.D. 2026-Mar-30 06:46:59.9998,  1.043944652030543E+01,  9.882735354373460E-01,  4.087139528672289E-03, -3.230512092623585E-03,  2.075281096364141E-02,  8.922536908236972E-03,  6.056278717560084E-02,  1.048612153924760E+01, -1.256788476103720E-03,
2461129.824305553, A.D. 2026-Mar-30 07:46:59.9998,  1.043931165966161E+01,  9.891381972388741E-01,  4.458895258265724E-03, -3.242798508676452E-03,  2.075095428395902E-02,  8.921737584909726E-03,  6.056248348905263E-02,  1.048606895755176E+01, -1.267132776878786E-03,
2461129.865972220, A.D. 2026-Mar-30 08:46:59.9998,  1.043917628712126E+01,  9.900027815254554E-01,  4.830617616841921E-03, -3.255083132939757E-03,  2.074909024415997E-02,  8.920935100350542E-03,  6.056217731328818E-02,  1.048601594486150E+01, -1.277476216165958E-03,
2461129.907638886, A.D. 2026-Mar-30 09:46:59.9998,  1.043904040275820E+01,  9.908672879901128E-01,  5.202306472802718E-03, -3.267366004648022E-03,  2.074721882831096E-02,  8.920129460355026E-03,  6.056186864850957E-02,  1.048596250121178E+01, -1.287818836905344E-03,
2461129.949305553, A.D. 2026-Mar-30 10:46:59.9998,  1.043890400664473E+01,  9.917317163250392E-01,  5.573961694794053E-03, -3.279647157799184E-03,  2.074534001229057E-02,  8.919320670764220E-03,  6.056155749490904E-02,  1.048590862663591E+01, -1.298160677602641E-03,
2461129.990972220, A.D. 2026-Mar-30 11:46:59.9998,  1.043876709885195E+01,  9.925960662212159E-01,  5.945583151694684E-03, -3.291926613262485E-03,  2.074345376150120E-02,  8.918508736744962E-03,  6.056124385267073E-02,  1.048585432116577E+01, -1.308501764693880E-03,
2461130.032638886, A.D. 2026-Mar-30 12:46:59.9998,  1.043862967945020E+01,  9.934603373681226E-01,  6.317170712593433E-03, -3.304204393986489E-03,  2.074156004285523E-02,  8.917693663705099E-03,  6.056092772197304E-02,  1.048579958483224E+01, -1.318842126554530E-03,
2461130.074305553, A.D. 2026-Mar-30 13:46:59.9998,  1.043849174850896E+01,  9.943245294538354E-01,  6.688724246797464E-03, -3.316480509327196E-03,  2.073965881727349E-02,  8.916875456042554E-03,  6.056060910298802E-02,  1.048574441766512E+01, -1.329181778609395E-03,
2461130.115972220, A.D. 2026-Mar-30 14:46:59.9998,  1.043835330609740E+01,  9.951886421648071E-01,  7.060243623789719E-03, -3.328754970031497E-03,  2.073775004918838E-02,  8.916054118206373E-03,  6.056028799588459E-02,  1.048568881969365E+01, -1.339520737349558E-03,
2461130.157638886, A.D. 2026-Mar-30 15:46:59.9998,  1.043821435228445E+01,  9.960526751859916E-01,  7.431728713219940E-03, -3.341027774651877E-03,  2.073583370128831E-02,  8.915229653515691E-03,  6.055996440082877E-02,  1.048563279094657E+01, -1.349859007306837E-03,
2461130.199305553, A.D. 2026-Mar-30 16:46:59.9998,  1.043807488713933E+01,  9.969166282008082E-01,  7.803179384852164E-03, -3.353298911958453E-03,  2.073390973789576E-02,  8.914402064202546E-03,  6.055963831798680E-02,  1.048557633145267E+01, -1.360196583135323E-03,
2461130.240972220, A.D. 2026-Mar-30 17:46:59.9998,  1.043793491073184E+01,  9.977805008912755E-01,  8.174595508526807E-03, -3.365568365604664E-03,  2.073197812773736E-02,  8.913571351750530E-03,  6.055930974752697E-02,  1.048551944124110E+01, -1.370533453991760E-03,
2461130.282638886, A.D. 2026-Mar-30 18:46:59.9998,  1.043779442313251E+01,  9.986442929382152E-01,  8.545976954134771E-03, -3.377836116647296E-03,  2.073003884461850E-02,  8.912737517131208E-03,  6.055897868962051E-02,  1.048546212034149E+01, -1.380869605977817E-03,
2461130.324305553, A.D. 2026-Mar-30 19:46:59.9998,  1.043765342441271E+01,  9.995080040214586E-01,  8.917323591599616E-03, -3.390102144764336E-03,  2.072809186709966E-02,  8.911900560958225E-03,  6.055864514444233E-02,  1.048540436878414E+01, -1.391205023380843E-03,
2461130.365972220, A.D. 2026-Mar-30 20:46:59.9998,  1.043751191464467E+01,  1.000371633820031E+00,  9.288635290864641E-03, -3.402366428765978E-03,  2.072613717784251E-02,  8.911060483580599E-03,  6.055830911217118E-02,  1.048534618659998E+01, -1.401539689242629E-03,
